UNKNOWN                 
1 82560U          25337.12649323  .00002035  00000+0  16726-2 0  9994
2 82560  99.9869 278.9685 0012024 335.7988  38.9613 13.90598384610535
UNKNOWN                 
1 82597U          25336.81841658  .00001942  00000+0  66566-3 0  9998
2 82597  66.7682 174.1142 0096993 314.0997  45.2150 14.35678296627550
UNKNOWN                 
1 82617U          25338.51866412  .00001256  00000+0  33269-3 0  9997
2 82617  74.0273 259.0677 0039279 206.3721 153.5441 14.49381098635639
UNKNOWN                 
1 82627U          25334.74907958  .00000605  00000+0  15578-2 0  9999
2 82627  82.4750 257.1823 0009442 111.2198 279.4459 13.16273934577258
UNKNOWN                 
1 82642U          25337.47319889  .00003670  00000+0  20406-2 0  9990
2 82642  98.9738 248.0781 0135490 263.4998  95.0730 14.07154870614834
UNKNOWN                 
1 82683U          25337.46098039  .00001472  00000+0  56683-3 0  9990
2 82683  98.1750  47.1063 0211524  63.3601 298.9073 14.20095882460955
UNKNOWN                 
1 82693U          25338.15958718  .00004747  00000+0  54745-2 0  9991
2 82693 100.5310 300.8844 0043938  41.2276 319.2170 13.69432778552584
UNKNOWN                 
1 82698U          25337.85345127  .00002838  00000+0  17055-2 0  9998
2 82698  61.6102 174.2656 0683997 286.3183  66.3690 13.29384949537192
UNKNOWN                 
1 82708U          25335.32183093  .00000695  00000+0  28122-2 0  9998
2 82708 102.1695 177.3823 0064800 309.8204  49.7196 12.90542074522049
UNKNOWN                 
1 82729U          25333.84630336  .00000352  00000+0  13110-2 0  9994
2 82729  67.9627 168.1835 0831215  19.8440 343.2963 12.17742458533636
UNKNOWN                 
1 82739U          25334.92336933  .00001910  00000+0  16033-2 0  9999
2 82739  99.0875 131.6710 0173219 324.8857 190.3241 13.82636983604478
UNKNOWN                 
1 82741U          25335.35181596  .00002762  00000+0  29978-2 0  9991
2 82741 102.8469   7.1325 0201704 290.9380  67.0270 13.65936642595520
