CCSDS_OMM_VERS = 2.0
CREATION_DATE  = 
ORIGINATOR     = 

OBJECT_NAME    = UNKNOWN
OBJECT_ID      = 
CENTER_NAME    = EARTH
REF_FRAME      = TEME
TIME_SYSTEM    = UTC
MEAN_ELEMENT_THEORY = SGP/SGP4

EPOCH          = 2025-12-03T03:02:09.015072
MEAN_MOTION    = 13.90598384
ECCENTRICITY   = .0012024
INCLINATION    = 99.9869
RA_OF_ASC_NODE = 278.9685
ARG_OF_PERICENTER = 335.7988
MEAN_ANOMALY   = 38.9613

EPHEMERIS_TYPE = 0
CLASSIFICATION_TYPE = U
NORAD_CAT_ID   = 82560
ELEMENT_SET_NO = 999
REV_AT_EPOCH   = 61053
BSTAR          = .16726E-2
MEAN_MOTION_DOT = .2035E-4
MEAN_MOTION_DDOT = 0

CCSDS_OMM_VERS = 2.0
CREATION_DATE  = 
ORIGINATOR     = 

OBJECT_NAME    = UNKNOWN
OBJECT_ID      = 
CENTER_NAME    = EARTH
REF_FRAME      = TEME
TIME_SYSTEM    = UTC
MEAN_ELEMENT_THEORY = SGP/SGP4

EPOCH          = 2025-12-02T19:38:31.192512
MEAN_MOTION    = 14.35678296
ECCENTRICITY   = .0096993
INCLINATION    = 66.7682
RA_OF_ASC_NODE = 174.1142
ARG_OF_PERICENTER = 314.0997
MEAN_ANOMALY   = 45.2150

EPHEMERIS_TYPE = 0
CLASSIFICATION_TYPE = U
NORAD_CAT_ID   = 82597
ELEMENT_SET_NO = 999
REV_AT_EPOCH   = 62755
BSTAR          = .66566E-3
MEAN_MOTION_DOT = .1942E-4
MEAN_MOTION_DDOT = 0

CCSDS_OMM_VERS = 2.0
CREATION_DATE  = 
ORIGINATOR     = 

OBJECT_NAME    = UNKNOWN
OBJECT_ID      = 
CENTER_NAME    = EARTH
REF_FRAME      = TEME
TIME_SYSTEM    = UTC
MEAN_ELEMENT_THEORY = SGP/SGP4

EPOCH          = 2025-12-04T12:26:52.579968
MEAN_MOTION    = 14.49381098
ECCENTRICITY   = .0039279
INCLINATION    = 74.0273
RA_OF_ASC_NODE = 259.0677
ARG_OF_PERICENTER = 206.3721
MEAN_ANOMALY   = 153.5441

EPHEMERIS_TYPE = 0
CLASSIFICATION_TYPE = U
NORAD_CAT_ID   = 82617
ELEMENT_SET_NO = 999
REV_AT_EPOCH   = 63563
BSTAR          = .33269E-3
MEAN_MOTION_DOT = .1256E-4
MEAN_MOTION_DDOT = 0

CCSDS_OMM_VERS = 2.0
CREATION_DATE  = 
ORIGINATOR     = 

OBJECT_NAME    = UNKNOWN
OBJECT_ID      = 
CENTER_NAME    = EARTH
REF_FRAME      = TEME
TIME_SYSTEM    = UTC
MEAN_ELEMENT_THEORY = SGP/SGP4

EPOCH          = 2025-11-30T17:58:40.475712
MEAN_MOTION    = 13.16273934
ECCENTRICITY   = .0009442
INCLINATION    = 82.4750
RA_OF_ASC_NODE = 257.1823
ARG_OF_PERICENTER = 111.2198
MEAN_ANOMALY   = 279.4459

EPHEMERIS_TYPE = 0
CLASSIFICATION_TYPE = U
NORAD_CAT_ID   = 82627
ELEMENT_SET_NO = 999
REV_AT_EPOCH   = 57725
BSTAR          = .15578E-2
MEAN_MOTION_DOT = .605E-5
MEAN_MOTION_DDOT = 0

CCSDS_OMM_VERS = 2.0
CREATION_DATE  = 
ORIGINATOR     = 

OBJECT_NAME    = UNKNOWN
OBJECT_ID      = 
CENTER_NAME    = EARTH
REF_FRAME      = TEME
TIME_SYSTEM    = UTC
MEAN_ELEMENT_THEORY = SGP/SGP4

EPOCH          = 2025-12-03T11:21:24.384096
MEAN_MOTION    = 14.07154870
ECCENTRICITY   = .013549
INCLINATION    = 98.9738
RA_OF_ASC_NODE = 248.0781
ARG_OF_PERICENTER = 263.4998
MEAN_ANOMALY   = 95.0730

EPHEMERIS_TYPE = 0
CLASSIFICATION_TYPE = U
NORAD_CAT_ID   = 82642
ELEMENT_SET_NO = 999
REV_AT_EPOCH   = 61483
BSTAR          = .20406E-2
MEAN_MOTION_DOT = .367E-4
MEAN_MOTION_DDOT = 0

CCSDS_OMM_VERS = 2.0
CREATION_DATE  = 
ORIGINATOR     = 

OBJECT_NAME    = UNKNOWN
OBJECT_ID      = 
CENTER_NAME    = EARTH
REF_FRAME      = TEME
TIME_SYSTEM    = UTC
MEAN_ELEMENT_THEORY = SGP/SGP4

EPOCH          = 2025-12-03T11:03:48.705696
MEAN_MOTION    = 14.20095882
ECCENTRICITY   = .0211524
INCLINATION    = 98.1750
RA_OF_ASC_NODE = 47.1063
ARG_OF_PERICENTER = 63.3601
MEAN_ANOMALY   = 298.9073

EPHEMERIS_TYPE = 0
CLASSIFICATION_TYPE = U
NORAD_CAT_ID   = 82683
ELEMENT_SET_NO = 999
REV_AT_EPOCH   = 46095
BSTAR          = .56683E-3
MEAN_MOTION_DOT = .1472E-4
MEAN_MOTION_DDOT = 0

CCSDS_OMM_VERS = 2.0
CREATION_DATE  = 
ORIGINATOR     = 

OBJECT_NAME    = UNKNOWN
OBJECT_ID      = 
CENTER_NAME    = EARTH
REF_FRAME      = TEME
TIME_SYSTEM    = UTC
MEAN_ELEMENT_THEORY = SGP/SGP4

EPOCH          = 2025-12-04T03:49:48.332352
MEAN_MOTION    = 13.69432778
ECCENTRICITY   = .0043938
INCLINATION    = 100.5310
RA_OF_ASC_NODE = 300.8844
ARG_OF_PERICENTER = 41.2276
MEAN_ANOMALY   = 319.2170

EPHEMERIS_TYPE = 0
CLASSIFICATION_TYPE = U
NORAD_CAT_ID   = 82693
ELEMENT_SET_NO = 999
REV_AT_EPOCH   = 55258
BSTAR          = .54745E-2
MEAN_MOTION_DOT = .4747E-4
MEAN_MOTION_DDOT = 0

CCSDS_OMM_VERS = 2.0
CREATION_DATE  = 
ORIGINATOR     = 

OBJECT_NAME    = UNKNOWN
OBJECT_ID      = 
CENTER_NAME    = EARTH
REF_FRAME      = TEME
TIME_SYSTEM    = UTC
MEAN_ELEMENT_THEORY = SGP/SGP4

EPOCH          = 2025-12-03T20:28:58.189728
MEAN_MOTION    = 13.29384949
ECCENTRICITY   = .0683997
INCLINATION    = 61.6102
RA_OF_ASC_NODE = 174.2656
ARG_OF_PERICENTER = 286.3183
MEAN_ANOMALY   = 66.3690

EPHEMERIS_TYPE = 0
CLASSIFICATION_TYPE = U
NORAD_CAT_ID   = 82698
ELEMENT_SET_NO = 999
REV_AT_EPOCH   = 53719
BSTAR          = .17055E-2
MEAN_MOTION_DOT = .2838E-4
MEAN_MOTION_DDOT = 0

CCSDS_OMM_VERS = 2.0
CREATION_DATE  = 
ORIGINATOR     = 

OBJECT_NAME    = UNKNOWN
OBJECT_ID      = 
CENTER_NAME    = EARTH
REF_FRAME      = TEME
TIME_SYSTEM    = UTC
MEAN_ELEMENT_THEORY = SGP/SGP4

EPOCH          = 2025-12-01T07:43:26.192352
MEAN_MOTION    = 12.90542074
ECCENTRICITY   = .00648
INCLINATION    = 102.1695
RA_OF_ASC_NODE = 177.3823
ARG_OF_PERICENTER = 309.8204
MEAN_ANOMALY   = 49.7196

EPHEMERIS_TYPE = 0
CLASSIFICATION_TYPE = U
NORAD_CAT_ID   = 82708
ELEMENT_SET_NO = 999
REV_AT_EPOCH   = 52204
BSTAR          = .28122E-2
MEAN_MOTION_DOT = .695E-5
MEAN_MOTION_DDOT = 0

CCSDS_OMM_VERS = 2.0
CREATION_DATE  = 
ORIGINATOR     = 

OBJECT_NAME    = UNKNOWN
OBJECT_ID      = 
CENTER_NAME    = EARTH
REF_FRAME      = TEME
TIME_SYSTEM    = UTC
MEAN_ELEMENT_THEORY = SGP/SGP4

EPOCH          = 2025-11-29T20:18:40.610304
MEAN_MOTION    = 12.17742458
ECCENTRICITY   = .0831215
INCLINATION    = 67.9627
RA_OF_ASC_NODE = 168.1835
ARG_OF_PERICENTER = 19.8440
MEAN_ANOMALY   = 343.2963

EPHEMERIS_TYPE = 0
CLASSIFICATION_TYPE = U
NORAD_CAT_ID   = 82729
ELEMENT_SET_NO = 999
REV_AT_EPOCH   = 53363
BSTAR          = .1311E-2
MEAN_MOTION_DOT = .352E-5
MEAN_MOTION_DDOT = 0

CCSDS_OMM_VERS = 2.0
CREATION_DATE  = 
ORIGINATOR     = 

OBJECT_NAME    = UNKNOWN
OBJECT_ID      = 
CENTER_NAME    = EARTH
REF_FRAME      = TEME
TIME_SYSTEM    = UTC
MEAN_ELEMENT_THEORY = SGP/SGP4

EPOCH          = 2025-11-30T22:09:39.110112
MEAN_MOTION    = 13.82636983
ECCENTRICITY   = .0173219
INCLINATION    = 99.0875
RA_OF_ASC_NODE = 131.6710
ARG_OF_PERICENTER = 324.8857
MEAN_ANOMALY   = 190.3241

EPHEMERIS_TYPE = 0
CLASSIFICATION_TYPE = U
NORAD_CAT_ID   = 82739
ELEMENT_SET_NO = 999
REV_AT_EPOCH   = 60447
BSTAR          = .16033E-2
MEAN_MOTION_DOT = .191E-4
MEAN_MOTION_DDOT = 0

CCSDS_OMM_VERS = 2.0
CREATION_DATE  = 
ORIGINATOR     = 

OBJECT_NAME    = UNKNOWN
OBJECT_ID      = 
CENTER_NAME    = EARTH
REF_FRAME      = TEME
TIME_SYSTEM    = UTC
MEAN_ELEMENT_THEORY = SGP/SGP4

EPOCH          = 2025-12-01T08:26:36.898944
MEAN_MOTION    = 13.65936642
ECCENTRICITY   = .0201704
INCLINATION    = 102.8469
RA_OF_ASC_NODE = 7.1325
ARG_OF_PERICENTER = 290.9380
MEAN_ANOMALY   = 67.0270

EPHEMERIS_TYPE = 0
CLASSIFICATION_TYPE = U
NORAD_CAT_ID   = 82741
ELEMENT_SET_NO = 999
REV_AT_EPOCH   = 59552
BSTAR          = .29978E-2
MEAN_MOTION_DOT = .2762E-4
MEAN_MOTION_DDOT = 0

